ION SCV-009             
1 55441U 23014BC  23335.89091666  .00158420  00000+0  83158-3 0  9997
2 55441  70.0002 321.0589 0007027 272.0582  87.9815 15.80122837 47916
STARLINK-5699           
1 55449U 23015A   23335.60915536  .00000940  00000+0  84641-4 0  9998
2 55449  43.0038 151.4255 0001255 266.8341  93.2358 15.02542277 46974
STARLINK-5686           
1 55450U 23015B   23335.81191310  .00001402  00000+0  11877-3 0  9993
2 55450  43.0037 150.3654 0001211 268.7547  91.3157 15.02551442 47002
STARLINK-5656           
1 55451U 23015C   23335.80526116  .00000345  00000+0  40630-4 0  9994
2 55451  43.0016 150.3172 0001422 268.4594  91.6085 15.02549463 46066
STARLINK-5683           
1 55452U 23015D   23335.60027679  .00002900  00000+0  22961-3 0  9998
2 55452  43.0013 151.3584 0001373 264.3390  95.7296 15.02541047 46032
STARLINK-5684           
1 55453U 23015E   23335.66342539  .00001170  00000+0  10164-3 0  9990
2 55453  43.0021 150.9721 0001080 274.3287  85.7432 15.02537665 46044
STARLINK-5636           
1 55454U 23015F   23335.65787274  .00001142  00000+0  99585-4 0  9993
2 55454  43.0027 150.9194 0001265 282.1897  77.8803 15.02539561 46045
STARLINK-5680           
1 55455U 23015G   23335.80303984  .00006511  00000+0  49682-3 0  9990
2 55455  43.0019 150.2989 0001059 270.0629  90.0092 15.02520673 46065
STARLINK-5058           
1 55456U 23015H   23335.59251112 -.00000590  00000+0 -28571-4 0  9990
2 55456  43.0030 151.3001 0001189 260.7435  99.3273 15.02538895 46036
STARLINK-5682           
1 55457U 23015J   23335.52825463  .00004036  00000+0  31362-3 0  9998
2 55457  43.0014 151.6774 0001217 272.1113  87.9590 15.02541701 46025
STARLINK-5020           
1 55458U 23015K   23335.84620234  .00002342  00000+0  18831-3 0  9997
2 55458  43.0027 149.7599 0001246 268.3047  91.7653 15.02549071 46074
STARLINK-5669           
1 55459U 23015L   23335.51937170  .00000636  00000+0  62125-4 0  9992
2 55459  43.0019 151.6083 0001297 272.2216  87.8478 15.02537950 46023
STARLINK-5678           
1 55460U 23015M   23335.51604173  .00000442  00000+0  47763-4 0  9994
2 55460  43.0010 151.5833 0001137 270.1437  89.9275 15.02542844 46029
STARLINK-5646           
1 55461U 23015N   23335.52270754 -.00000430  00000+0 -16777-4 0  9990
2 55461  43.0031 151.6361 0001460 287.8703  72.1980 15.02543235 46022
STARLINK-5673           
1 55462U 23015P   23335.50494278  .00001302  00000+0  11139-3 0  9991
2 55462  43.0016 151.5009 0001325 270.9825  89.0866 15.02539627 46022
STARLINK-5677           
1 55463U 23015Q   23335.51049364  .00000790  00000+0  73510-4 0  9997
2 55463  43.0029 151.5431 0001131 263.4125  96.6588 15.02537027 46028
STARLINK-5676           
1 55464U 23015R   23335.49606173  .00001864  00000+0  15304-3 0  9991
2 55464  43.0029 151.4340 0001252 266.5529  93.5170 15.02535481 46028
STARLINK-5674           
1 55465U 23015S   23335.70104559 -.00000247  00000+0 -32251-5 0  9995
2 55465  43.0018 150.3921 0001191 272.6241  87.4465 15.02543848 46059
STARLINK-5628           
1 55466U 23015T   23335.68661117  .00000767  00000+0  71833-4 0  9994
2 55466  43.0025 150.2832 0001196 275.5246  84.5460 15.02544984 46055
STARLINK-5679           
1 55467U 23015U   23335.50827339  .00002110  00000+0  17118-3 0  9995
2 55467  43.0021 151.5255 0001342 268.0042  92.0646 15.02540918 46029
STARLINK-5672           
1 55468U 23015V   23335.49384039  .00000962  00000+0  86292-4 0  9992
2 55468  43.0023 151.4180 0001242 276.6834  83.3867 15.02540693 46029
STARLINK-5681           
1 55469U 23015W   23335.69882432  .00000596  00000+0  59150-4 0  9991
2 55469  43.0009 150.3757 0001261 264.0218  96.0480 15.02541517 46051
STARLINK-5708           
1 55470U 23015X   23335.69105283  .00004464  00000+0  34523-3 0  9999
2 55470  43.0017 150.3167 0001470 277.2232  82.8443 15.02545322 46051
STARLINK-5711           
1 55471U 23015Y   23335.82290111  .00000742  00000+0  70025-4 0  9993
2 55471  43.0027 149.5853 0001318 273.5118  86.5574 15.02535463 46071
STARLINK-5705           
1 55472U 23015Z   23335.75457155  .00001369  00000+0  11641-3 0  9993
2 55472  43.0029 137.7859 0001151 266.9401  93.1309 15.02538243 46209
STARLINK-5687           
1 55473U 23015AA  23335.68439231  .00000783  00000+0  72981-4 0  9995
2 55473  43.0030 150.2662 0001135 271.2896  88.7817 15.02541603 46054
STARLINK-5689           
1 55474U 23015AB  23335.85815904  .00002053  00000+0  16698-3 0  9994
2 55474  43.0018 162.8429 0001132 275.7228  84.3485 15.02540583 45920
STARLINK-5650           
1 55475U 23015AC  23335.81401983  .00003636  00000+0  28398-3 0  9997
2 55475  43.0025 149.5181 0001230 263.2081  96.8622 15.02547277 46079
STARLINK-5685           
1 55477U 23015AE  23335.75124376  .00000457  00000+0  48857-4 0  9991
2 55477  43.0021 137.7563 0000984 237.5668 122.5079 15.02538561 46204
STARLINK-5691           
1 55478U 23015AF  23335.54848630  .00000294  00000+0  36872-4 0  9998
2 55478  43.0036 138.8121 0001225 263.6015  96.4688 15.02535509 46178
STARLINK-5688           
1 55479U 23015AG  23335.49199592  .00000887  00000+0  80734-4 0  9993
2 55479  43.0029 139.2522 0001145 269.2161  90.8550 15.02538207 46169
STARLINK-5690           
1 55480U 23015AH  23335.71839063  .00002126  00000+0  17600-3 0  9993
2 55480  43.0030 161.7442 0001213 269.7645  90.3058 15.01732605 45920
STARLINK-5694           
1 55481U 23015AJ  23335.85482686  .00002041  00000+0  16605-3 0  9994
2 55481  43.0028 162.8175 0001120 266.7436  93.3279 15.02543500 45928
STARLINK-5693           
1 55482U 23015AK  23334.96730948  .00000730  00000+0  69088-4 0  9990
2 55482  43.0031 167.3385 0001224 273.4639  86.6063 15.02541835 45791
STARLINK-5692           
1 55483U 23015AL  23335.84372330  .00002320  00000+0  18673-3 0  9996
2 55483  43.0026 162.7332 0001133 273.1732  86.8981 15.02548218 45925
STARLINK-5696           
1 55484U 23015AM  23335.50246593  .00000305  00000+0  37619-4 0  9994
2 55484  43.0033 164.4731 0001183 266.0717  93.9991 15.02536683 45872
STARLINK-5695           
1 55485U 23015AN  23335.85038838  .00003362  00000+0  26375-3 0  9996
2 55485  43.0017 162.7832 0001291 268.8456  91.2239 15.02546432 45923
STARLINK-5704           
1 55486U 23015AP  23334.96007749  .00001130  00000+0  10071-3 0  9992
2 55486  43.0029 167.2408 0001156 260.0226 100.0486 15.01730467 45795
STARLINK-5701           
1 55487U 23015AQ  23335.85150985  .00000708  00000+0  67505-4 0  9998
2 55487  43.0035 162.7913 0001269 270.1432  89.9265 15.02541851 45923
STARLINK-5706           
1 55488U 23015AR  23334.96062517  .00004494  00000+0  34723-3 0  9994
2 55488  43.0015 167.2817 0001133 270.2799  89.7913 15.02565793 45796
STARLINK-5371           
1 55489U 23015AS  23335.04266658 -.00000211  00000+0 -55673-6 0  9992
2 55489  43.0029 167.0435 0001370 278.5172  81.5515 15.02543278 45809
STARLINK-5373           
1 55490U 23015AT  23335.68857707 -.00000193  00000+0  81160-6 0  9993
2 55490  43.0022 163.2834 0001146 261.2026  98.8686 15.02538125 45909
STARLINK-5364           
1 55491U 23015AU  23335.49298900  .00000150  00000+0  26207-4 0  9998
2 55491  43.0037 138.3923 0001247 266.9876  93.0823 15.02536224 46173
STARLINK-5013           
1 55492U 23015AV  23334.96619866  .00000812  00000+0  75148-4 0  9991
2 55492  43.0029 167.3253 0001335 265.3986  94.6704 15.02540989 45791
STARLINK-5362           
1 55493U 23015AW  23335.82375037  .00003157  00000+0  24863-3 0  9999
2 55493  43.0017 162.5801 0001319 272.5162  87.5529 15.02545117 45922
STARLINK-5344           
1 55494U 23015AX  23335.55451211  .00000238  00000+0  32685-4 0  9998
2 55494  43.0021 163.9986 0001326 266.8454  93.2237 15.02536573 45886
STARLINK-5100           
1 55495U 23015AY  23335.54515264 -.00000331  00000+0 -94239-5 0  9997
2 55495  43.0032 138.7872 0001296 257.1820 102.8878 15.02540521 46178
STARLINK-5363           
1 55497U 23015BA  23335.81711085  .00001825  00000+0  15018-3 0  9991
2 55497  43.0001 162.5298 0000735 291.4015  68.6749 15.02526359 45928
STARLINK-5365           
1 55498U 23015BB  23335.54229994  .00001610  00000+0  13419-3 0  9990
2 55498  43.0013 163.9055 0001361 269.8341  90.2345 15.02540604 45882
STARLINK-5366           
1 55499U 23015BC  23335.73507296  .00001078  00000+0  94871-4 0  9996
2 55499  43.0027 162.7726 0001191 275.9552  84.1154 15.02539988 46663
STARLINK-5141           
1 55500U 23015BD  23335.88021191  .00002240  00000+0  18071-3 0  9999
2 55500  43.0064 162.1426 0003041 288.9765  71.0748 15.02564019 45930
STARLINK-5367           
1 55501U 23015BE  23335.87247319  .00001664  00000+0  13820-3 0  9997
2 55501  43.0010 162.0808 0001202 246.1691 113.9025 15.02536140 45934
STARLINK-5749           
1 55569U 23020A   23335.03662184  .00000918  00000+0  83019-4 0  9995
2 55569  43.0016 193.1117 0001314 270.3247  89.7444 15.02536097 45185
STARLINK-5737           
1 55570U 23020B   23334.97236109  .00001433  00000+0  12110-3 0  9999
2 55570  43.0013 193.4938 0001366 263.2811  96.7876 15.02534865 44102
STARLINK-5739           
1 55571U 23020C   23335.76453613  .00010800  00000+0  81264-3 0  9993
2 55571  43.0011 189.1157 0001298 271.9139  88.1554 15.02569005 44224
STARLINK-5732           
1 55572U 23020D   23335.82657695  .00000438  00000+0  47491-4 0  9998
2 55572  43.0012 188.7227 0001498 274.3266  85.7405 15.02537992 44238
STARLINK-5738           
1 55573U 23020E   23335.89416726  .00002997  00000+0  23675-3 0  9993
2 55573  43.0019 188.3688 0001230 266.1638  93.9064 15.02547369 44241
STARLINK-5747           
1 55574U 23020F   23335.75122945  .00006922  00000+0  52694-3 0  9991
2 55574  43.0009 189.0160 0001303 268.5453  91.5240 15.02540630 44228
STARLINK-5745           
1 55575U 23020G   23335.75677646  .00001706  00000+0  14130-3 0  9993
2 55575  43.0012 189.0569 0001468 262.9138  97.1537 15.02539242 44224
